{
  "type": "FeatureCollection",
  "features": [
    {
      "type": "Feature",
      "properties": {
        "norad_id": 33835,
        "name": "COSMOS 2251 DEB",
        "group": "cosmos-2251-debris",
        "lat": 10.154847414510135,
        "lon": -93.60247893589366,
        "alt_km": 653.1387084229245,
        "timestamp": "2025-12-18T21:31:51.397694+00:00",
        "meta_object_name": "COSMOS 2251 DEB",
        "meta_object_id": "1993-036CC",
        "meta_epoch": "2025-12-18T06:06:41.968224",
        "meta_mean_motion": 14.623048,
        "meta_eccentricity": 0.005424,
        "meta_inclination": 74.0576,
        "meta_ra_of_asc_node": 90.5607,
        "meta_arg_of_pericenter": 142.5103,
        "meta_mean_anomaly": 245.7536,
        "meta_ephemeris_type": 0,
        "meta_classification_type": "U",
        "meta_norad_cat_id": 33835,
        "meta_element_set_no": 999,
        "meta_rev_at_epoch": 88870,
        "meta_bstar": 0.00076516492,
        "meta_mean_motion_dot": 3.916e-05,
        "meta_mean_motion_ddot": 0,
        "tle_line1": "1 33835U 93036CC  25352.25465241  .00003916  00000+0  76516-3 0  9995",
        "tle_line2": "2 33835  74.0576  90.5607 0054240 142.5103 245.7536 14.62304800888702"
      },
      "geometry": {
        "type": "Point",
        "coordinates": [
          -93.60247893589366,
          10.154847414510135
        ]
      }
    },
    {
      "type": "Feature",
      "properties": {
        "norad_id": 33836,
        "name": "COSMOS 2251 DEB",
        "group": "cosmos-2251-debris",
        "lat": -36.60678703871472,
        "lon": 79.1094489958927,
        "alt_km": 644.250008496052,
        "timestamp": "2025-12-18T21:31:51.397705+00:00",
        "meta_object_name": "COSMOS 2251 DEB",
        "meta_object_id": "1993-036CD",
        "meta_epoch": "2025-12-18T03:22:45.400800",
        "meta_mean_motion": 14.79713269,
        "meta_eccentricity": 0.00226706,
        "meta_inclination": 73.9974,
        "meta_ra_of_asc_node": 248.2921,
        "meta_arg_of_pericenter": 99.401,
        "meta_mean_anomaly": 51.4003,
        "meta_ephemeris_type": 0,
        "meta_classification_type": "U",
        "meta_norad_cat_id": 33836,
        "meta_element_set_no": 999,
        "meta_rev_at_epoch": 64168,
        "meta_bstar": 0.00089606975,
        "meta_mean_motion_dot": 6.735e-05,
        "meta_mean_motion_ddot": 0,
        "tle_line1": "1 33836U 93036CD  25352.14080325  .00006735  00000+0  89607-3 0  9997",
        "tle_line2": "2 33836  73.9974 248.2921 0022670  99.4010  51.4003 14.79713269641689"
      },
      "geometry": {
        "type": "Point",
        "coordinates": [
          79.1094489958927,
          -36.60678703871472
        ]
      }
    },
    {
      "type": "Feature",
      "properties": {
        "norad_id": 33837,
        "name": "COSMOS 2251 DEB",
        "group": "cosmos-2251-debris",
        "lat": -73.11513301795253,
        "lon": -26.81801409440424,
        "alt_km": 705.2220640810547,
        "timestamp": "2025-12-18T21:31:51.397716+00:00",
        "meta_object_name": "COSMOS 2251 DEB",
        "meta_object_id": "1993-036CE",
        "meta_epoch": "2025-12-18T03:42:47.255904",
        "meta_mean_motion": 14.50712899,
        "meta_eccentricity": 0.00359019,
        "meta_inclination": 74.0127,
        "meta_ra_of_asc_node": 45.4034,
        "meta_arg_of_pericenter": 266.2512,
        "meta_mean_anomaly": 93.4543,
        "meta_ephemeris_type": 0,
        "meta_classification_type": "U",
        "meta_norad_cat_id": 33837,
        "meta_element_set_no": 999,
        "meta_rev_at_epoch": 88874,
        "meta_bstar": 0.00020354606,
        "meta_mean_motion_dot": 7.78e-06,
        "meta_mean_motion_ddot": 0,
        "tle_line1": "1 33837U 93036CE  25352.15471361  .00000778  00000+0  20355-3 0  9999",
        "tle_line2": "2 33837  74.0127  45.4034 0035901 266.2512  93.4543 14.50712899888748"
      },
      "geometry": {
        "type": "Point",
        "coordinates": [
          -26.81801409440424,
          -73.11513301795253
        ]
      }
    },
    {
      "type": "Feature",
      "properties": {
        "norad_id": 33838,
        "name": "COSMOS 2251 DEB",
        "group": "cosmos-2251-debris",
        "lat": 72.9348319350114,
        "lon": -110.54363651795471,
        "alt_km": 742.2923784804079,
        "timestamp": "2025-12-18T21:31:51.397726+00:00",
        "meta_object_name": "COSMOS 2251 DEB",
        "meta_object_id": "1993-036CF",
        "meta_epoch": "2025-12-18T03:40:33.692736",
        "meta_mean_motion": 14.48379395,
        "meta_eccentricity": 0.00274916,
        "meta_inclination": 74.0361,
        "meta_ra_of_asc_node": 139.6754,
        "meta_arg_of_pericenter": 260.8125,
        "meta_mean_anomaly": 277.8237,
        "meta_ephemeris_type": 0,
        "meta_classification_type": "U",
        "meta_norad_cat_id": 33838,
        "meta_element_set_no": 999,
        "meta_rev_at_epoch": 88647,
        "meta_bstar": 0.00033114902,
        "meta_mean_motion_dot": 1.218e-05,
        "meta_mean_motion_ddot": 0,
        "tle_line1": "1 33838U 93036CF  25352.15316774  .00001218  00000+0  33115-3 0  9994",
        "tle_line2": "2 33838  74.0361 139.6754 0027491 260.8125 277.8237 14.48379395886472"
      },
      "geometry": {
        "type": "Point",
        "coordinates": [
          -110.54363651795471,
          72.9348319350114
        ]
      }
    },
    {
      "type": "Feature",
      "properties": {
        "norad_id": 33839,
        "name": "COSMOS 2251 DEB",
        "group": "cosmos-2251-debris",
        "lat": 18.271704441641184,
        "lon": -159.92856449804984,
        "alt_km": 661.6723056698183,
        "timestamp": "2025-12-18T21:31:51.397737+00:00",
        "meta_object_name": "COSMOS 2251 DEB",
        "meta_object_id": "1993-036CG",
        "meta_epoch": "2025-12-18T07:30:12.869280",
        "meta_mean_motion": 14.64434128,
        "meta_eccentricity": 0.00852557,
        "meta_inclination": 74.0377,
        "meta_ra_of_asc_node": 195.7715,
        "meta_arg_of_pericenter": 306.5628,
        "meta_mean_anomaly": 231.5879,
        "meta_ephemeris_type": 0,
        "meta_classification_type": "U",
        "meta_norad_cat_id": 33839,
        "meta_element_set_no": 999,
        "meta_rev_at_epoch": 89661,
        "meta_bstar": 0.00017023711,
        "meta_mean_motion_dot": 9.15e-06,
        "meta_mean_motion_ddot": 0,
        "tle_line1": "1 33839U 93036CG  25352.31264895  .00000915  00000+0  17024-3 0  9993",
        "tle_line2": "2 33839  74.0377 195.7715 0085255 306.5628 231.5879 14.64434128896618"
      },
      "geometry": {
        "type": "Point",
        "coordinates": [
          -159.92856449804984,
          18.271704441641184
        ]
      }
    },
    {
      "type": "Feature",
      "properties": {
        "norad_id": 33841,
        "name": "COSMOS 2251 DEB",
        "group": "cosmos-2251-debris",
        "lat": -56.71749478928746,
        "lon": 112.55556517130127,
        "alt_km": 776.2216571561903,
        "timestamp": "2025-12-18T21:31:51.397748+00:00",
        "meta_object_name": "COSMOS 2251 DEB",
        "meta_object_id": "1993-036CJ",
        "meta_epoch": "2025-12-18T04:15:53.661888",
        "meta_mean_motion": 14.37868491,
        "meta_eccentricity": 0.00207712,
        "meta_inclination": 74.0378,
        "meta_ra_of_asc_node": 268.0298,
        "meta_arg_of_pericenter": 347.4164,
        "meta_mean_anomaly": 130.7122,
        "meta_ephemeris_type": 0,
        "meta_classification_type": "U",
        "meta_norad_cat_id": 33841,
        "meta_element_set_no": 999,
        "meta_rev_at_epoch": 88192,
        "meta_bstar": 0.00018178163,
        "meta_mean_motion_dot": 5.23e-06,
        "meta_mean_motion_ddot": 0,
        "tle_line1": "1 33841U 93036CJ  25352.17770442  .00000523  00000+0  18178-3 0  9996",
        "tle_line2": "2 33841  74.0378 268.0298 0020771 347.4164 130.7122 14.37868491881926"
      },
      "geometry": {
        "type": "Point",
        "coordinates": [
          112.55556517130127,
          -56.71749478928746
        ]
      }
    },
    {
      "type": "Feature",
      "properties": {
        "norad_id": 33842,
        "name": "COSMOS 2251 DEB",
        "group": "cosmos-2251-debris",
        "lat": -58.08800906199601,
        "lon": 55.59638794417573,
        "alt_km": 745.9102910555284,
        "timestamp": "2025-12-18T21:31:51.397759+00:00",
        "meta_object_name": "COSMOS 2251 DEB",
        "meta_object_id": "1993-036CK",
        "meta_epoch": "2025-12-18T07:05:42.663552",
        "meta_mean_motion": 14.42708415,
        "meta_eccentricity": 0.00474399,
        "meta_inclination": 74.0321,
        "meta_ra_of_asc_node": 209.3392,
        "meta_arg_of_pericenter": 315.5562,
        "meta_mean_anomaly": 44.1791,
        "meta_ephemeris_type": 0,
        "meta_classification_type": "U",
        "meta_norad_cat_id": 33842,
        "meta_element_set_no": 999,
        "meta_rev_at_epoch": 88417,
        "meta_bstar": 0.00022732435,
        "meta_mean_motion_dot": 7.4e-06,
        "meta_mean_motion_ddot": 0,
        "tle_line1": "1 33842U 93036CK  25352.29563268  .00000740  00000+0  22732-3 0  9998",
        "tle_line2": "2 33842  74.0321 209.3392 0047439 315.5562  44.1791 14.42708415884171"
      },
      "geometry": {
        "type": "Point",
        "coordinates": [
          55.59638794417573,
          -58.08800906199601
        ]
      }
    }
  ]
}